SL-14 R/B               
1 20511U 90018B   26198.18733521  .00000200  00000+0  22026-4 0  9990
2 20511  82.5216 102.0682 0016876  30.6202 329.5993 14.82234781941762
HST                     
1 20580U 90037B   26198.19509067  .00003225  00000+0  96969-4 0  9991
2 20580  28.4720 235.4292 0002183 123.0832 236.9973 15.31072955793174
SL-16 R/B               
1 20625U 90046B   26197.99195385  .00000283  00000+0  17040-3 0  9995
2 20625  70.9988  26.3499 0012360 111.1432 249.1013 14.15025808866684
COSMOS 2084             
1 20663U 90055A   26197.60561664  .00000748  00000+0  64586-4 0  9996
2 20663  62.7881 255.6726 0008265 319.5810  40.4676 15.06226547955736
SL-6 R/B(2)             
1 20666U 90055D   26198.03415464  .00000989  00000+0  84360-4 0  9992
2 20666  62.7805 173.8021 0045429   9.2424 350.9501 15.04092442957642
SL-8 R/B                
1 20775U 90078B   26197.88375241  .00008151  00000+0  23096-3 0  9995
2 20775  82.9037 134.7823 0343233 297.7965  58.8852 14.93605883828554
SL-8 R/B                
1 21088U 91006B   26198.15620786  .00000082  00000+0  67136-4 0  9992
2 21088  82.9406  73.7368 0023327  35.2767 133.0598 13.77509477781893
OKEAN-3                 
1 21397U 91039A   26197.58479939  .00001785  00000+0  12228-3 0  9991
2 21397  82.5144 211.8704 0012516 249.4103 110.5781 15.05439255884427
COSMOS 2151             
1 21422U 91042A   26198.13558509  .00000882  00000+0  67786-4 0  9994
2 21422  82.4982 318.7784 0011775 348.8504  11.2457 15.00516109882609
SL-14 R/B               
1 21423U 91042B   26198.13274773  .00000181  00000+0  19839-4 0  9991
2 21423  82.4931  98.8146 0017163 170.5729 189.5811 14.81918646872240
ERS-1                   
1 21574U 91050A   26198.05294284  .00000177  00000+0  71316-4 0  9990
2 21574  98.7795 219.4803 0032023 176.3094 183.8335 14.39534196834341
ARIANE 40 R/B           
1 21610U 91050F   26198.07421632  .00000109  00000+0  44890-4 0  9994
2 21610  98.1862 245.3245 0004079  57.3214 302.8370 14.42972467837651
INTERCOSMOS 25          
1 21819U 91086A   26198.15677946  .00000094  00000+0  15423-4 0  9997
2 21819  82.6004 231.6740 1484677 197.6921 156.6658 12.12241021512379
SL-8 R/B                
1 21876U 92008B   26197.93822523  .00000096  00000+0  82361-4 0  9990
2 21876  82.9273 171.6675 0035770 131.8722 282.5192 13.75984100727199
SL-8 R/B                
1 21938U 92020B   26198.04395917 -.00000001  00000+0 -16837-4 0  9991
2 21938  82.9280  57.6766 0027879 298.1110 228.6449 13.75550061718910
USA 81                  
1 21949U 92023A   26198.03353250  .00000095  00000+0  27915-4 0  9999
2 21949  85.0050  56.7770 0001907  65.6219 294.5172 14.32405236113301
COSMOS 2219             
1 22219U 92076A   26197.90023155 -.00000239  00000+0 -10045-3 0  9998
2 22219  71.0610 107.9594 0018364 354.8978   5.1954 14.14108093736645
SL-16 R/B               
1 22220U 92076B   26198.16809910  .00000033  00000+0  40462-4 0  9997
2 22220  71.0003 275.6255 0015034 259.6685 122.9404 14.16877974740172
COSMOS 2221             
1 22236U 92080A   26197.89226647  .00000839  00000+0  71128-4 0  9995
2 22236  82.5046 155.3046 0015817 115.0537 245.2329 14.96606610800116
SL-16 R/B               
1 22285U 92093B   26198.13559066 -.00000259  00000+0 -10802-3 0  9994
2 22285  71.0215  92.5220 0002209 129.3844 230.7475 14.15465033731473
COSMOS 2228             
1 22286U 92094A   26198.15380681  .00000818  00000+0  67451-4 0  9995
2 22286  82.5188 113.3394 0016454 222.1123 137.8837 14.97678859795430
SL-16 R/B               
1 22566U 93016B   26197.69478052  .00000263  00000+0  15932-3 0  9999
2 22566  71.0086 304.2311 0008777 135.2886 224.8946 14.15313430720426
COSMOS 2242             
1 22626U 93024A   26197.92649691  .00000882  00000+0  74284-4 0  9993
2 22626  82.5199 143.0905 0014762 226.2640 133.7361 14.96987701799728
SL-16 R/B               
1 22803U 93059B   26197.92187694 -.00000024  00000+0  12001-4 0  9996
2 22803  70.9901  98.5995 0016734   6.0229 354.1092 14.17249341697842
ARIANE 40 R/B           
1 22830U 93061H   26198.16156985  .00000068  00000+0  40554-4 0  9996
2 22830  98.4805 264.3939 0009519 259.2192 100.7921 14.32918978712643
COSMOS 2278             
1 23087U 94023A   26198.16265534  .00000078  00000+0  65330-4 0  9991
2 23087  71.0520 264.2097 0009531 202.6167 157.4537 14.14393589663115
SL-16 R/B               
1 23088U 94023B   26197.58549660  .00000180  00000+0  11767-3 0  9990
2 23088  70.9985 160.1918 0001378 122.6480 237.4775 14.15025044664321
SL-16 R/B               
1 23343U 94074B   26198.03439480  .00000181  00000+0  30783-4 0  9990
2 23343  97.6986 223.5104 0007306 148.8673 240.9902 14.79525266706378
SL-16 R/B               
1 23405U 94077B   26198.08212834  .00000034  00000+0  41764-4 0  9997
2 23405  70.9821  80.2696 0004104 301.9445  58.1278 14.15574322634546
ARIANE 40+ R/B          
1 23561U 95021B   26198.20585874  .00000113  00000+0  49737-4 0  9997
2 23561  98.4399 267.8452 0007946 111.3729 267.5651 14.39848217637886
SL-16 R/B               
1 23705U 95058B   26198.16600784  .00000254  00000+0  15433-3 0  9991
2 23705  71.0208 268.4177 0014629 280.2644  79.6829 14.15509802586173
