OBJECT_NAME,OBJECT_ID,EPOCH,MEAN_MOTION,ECCENTRICITY,INCLINATION,RA_OF_ASC_NODE,ARG_OF_PERICENTER,MEAN_ANOMALY,EPHEMERIS_TYPE,CLASSIFICATION_TYPE,NORAD_CAT_ID,ELEMENT_SET_NO,REV_AT_EPOCH,BSTAR,MEAN_MOTION_DOT,MEAN_MOTION_DDOT
SL-14 R/B,1990-018B,2026-07-17T04:29:45.762144,14.82234781,.0016876,82.5216,102.0682,30.6202,329.5993,0,U,20511,999,94176,.22026E-4,.2E-5,0
HST,1990-037B,2026-07-17T04:40:55.833888,15.31072955,.0002183,28.4720,235.4292,123.0832,236.9973,0,U,20580,999,79317,.96969E-4,.3225E-4,0
SL-16 R/B,1990-046B,2026-07-16T23:48:24.812640,14.15025808,.001236,70.9988,26.3499,111.1432,249.1013,0,U,20625,999,86668,.1704E-3,.283E-5,0
COSMOS 2084,1990-055A,2026-07-16T14:32:05.277696,15.06226547,.0008265,62.7881,255.6726,319.5810,40.4676,0,U,20663,999,95573,.64586E-4,.748E-5,0
SL-6 R/B(2),1990-055D,2026-07-17T00:49:10.960896,15.04092442,.0045429,62.7805,173.8021,9.2424,350.9501,0,U,20666,999,95764,.8436E-4,.989E-5,0
SL-8 R/B,1990-078B,2026-07-16T21:12:36.208224,14.93605883,.0343233,82.9037,134.7823,297.7965,58.8852,0,U,20775,999,82855,.23096E-3,.8151E-4,0
SL-8 R/B,1991-006B,2026-07-17T03:44:56.359104,13.77509477,.0023327,82.9406,73.7368,35.2767,133.0598,0,U,21088,999,78189,.67136E-4,.82E-6,0
OKEAN-3,1991-039A,2026-07-16T14:02:06.667296,15.05439255,.0012516,82.5144,211.8704,249.4103,110.5781,0,U,21397,999,88442,.12228E-3,.1785E-4,0
COSMOS 2151,1991-042A,2026-07-17T03:15:14.551776,15.00516109,.0011775,82.4982,318.7784,348.8504,11.2457,0,U,21422,999,88260,.67786E-4,.882E-5,0
SL-14 R/B,1991-042B,2026-07-17T03:11:09.403872,14.81918646,.0017163,82.4931,98.8146,170.5729,189.5811,0,U,21423,999,87224,.19839E-4,.181E-5,0
ERS-1,1991-050A,2026-07-17T01:16:14.261376,14.39534196,.0032023,98.7795,219.4803,176.3094,183.8335,0,U,21574,999,83434,.71316E-4,.177E-5,0
ARIANE 40 R/B,1991-050F,2026-07-17T01:46:52.290048,14.42972467,.0004079,98.1862,245.3245,57.3214,302.8370,0,U,21610,999,83765,.4489E-4,.109E-5,0
INTERCOSMOS 25,1991-086A,2026-07-17T03:45:45.745344,12.12241021,.1484677,82.6004,231.6740,197.6921,156.6658,0,U,21819,999,51237,.15423E-4,.94E-6,0
SL-8 R/B,1992-008B,2026-07-16T22:31:02.659872,13.75984100,.003577,82.9273,171.6675,131.8722,282.5192,0,U,21876,999,72719,.82361E-4,.96E-6,0
SL-8 R/B,1992-020B,2026-07-17T01:03:18.072288,13.75550061,.0027879,82.9280,57.6766,298.1110,228.6449,0,U,21938,999,71891,-.16837E-4,-.1E-7,0
USA 81,1992-023A,2026-07-17T00:48:17.208000,14.32405236,.0001907,85.0050,56.7770,65.6219,294.5172,0,U,21949,999,11330,.27915E-4,.95E-6,0
COSMOS 2219,1992-076A,2026-07-16T21:36:20.005920,14.14108093,.0018364,71.0610,107.9594,354.8978,5.1954,0,U,22219,999,73664,-.10045E-3,-.239E-5,0
SL-16 R/B,1992-076B,2026-07-17T04:02:03.762240,14.16877974,.0015034,71.0003,275.6255,259.6685,122.9404,0,U,22220,999,74017,.40462E-4,.33E-6,0
COSMOS 2221,1992-080A,2026-07-16T21:24:51.823008,14.96606610,.0015817,82.5046,155.3046,115.0537,245.2329,0,U,22236,999,80011,.71128E-4,.839E-5,0
SL-16 R/B,1992-093B,2026-07-17T03:15:15.033024,14.15465033,.0002209,71.0215,92.5220,129.3844,230.7475,0,U,22285,999,73147,-.10802E-3,-.259E-5,0
COSMOS 2228,1992-094A,2026-07-17T03:41:28.908384,14.97678859,.0016454,82.5188,113.3394,222.1123,137.8837,0,U,22286,999,79543,.67451E-4,.818E-5,0
SL-16 R/B,1993-016B,2026-07-16T16:40:29.036928,14.15313430,.0008777,71.0086,304.2311,135.2886,224.8946,0,U,22566,999,72042,.15932E-3,.263E-5,0
COSMOS 2242,1993-024A,2026-07-16T22:14:09.333024,14.96987701,.0014762,82.5199,143.0905,226.2640,133.7361,0,U,22626,999,79972,.74284E-4,.882E-5,0
SL-16 R/B,1993-059B,2026-07-16T22:07:30.167616,14.17249341,.0016734,70.9901,98.5995,6.0229,354.1092,0,U,22803,999,69784,.12001E-4,-.24E-6,0
ARIANE 40 R/B,1993-061H,2026-07-17T03:52:39.635040,14.32918978,.0009519,98.4805,264.3939,259.2192,100.7921,0,U,22830,999,71264,.40554E-4,.68E-6,0
COSMOS 2278,1994-023A,2026-07-17T03:54:13.421376,14.14393589,.0009531,71.0520,264.2097,202.6167,157.4537,0,U,23087,999,66311,.6533E-4,.78E-6,0
SL-16 R/B,1994-023B,2026-07-16T14:03:06.906240,14.15025044,.0001378,70.9985,160.1918,122.6480,237.4775,0,U,23088,999,66432,.11767E-3,.18E-5,0
SL-16 R/B,1994-074B,2026-07-17T00:49:31.710720,14.79525266,.0007306,97.6986,223.5104,148.8673,240.9902,0,U,23343,999,70637,.30783E-4,.181E-5,0
SL-16 R/B,1994-077B,2026-07-17T01:58:15.888576,14.15574322,.0004104,70.9821,80.2696,301.9445,58.1278,0,U,23405,999,63454,.41764E-4,.34E-6,0
ARIANE 40+ R/B,1995-021B,2026-07-17T04:56:26.195136,14.39848217,.0007946,98.4399,267.8452,111.3729,267.5651,0,U,23561,999,63788,.49737E-4,.113E-5,0
SL-16 R/B,1995-058B,2026-07-17T03:59:03.077376,14.15509802,.0014629,71.0208,268.4177,280.2644,79.6829,0,U,23705,999,58617,.15433E-3,.254E-5,0
